     2.11           G: GLONASS NAV DATA                     RINEX VERSION / TYPE
teqc  2019Feb25                         20220928 23:14:43UTCPGM / RUN BY / DATE
Linux2.6.32-573.12.1.el6.x86_64|x86_64|gcc|Win64-MinGW64|=+ COMMENT
                                                            END OF HEADER
17 22  6 22 20 45  0.0 5.372138693929D-04 2.728484105319D-12 7.380000000000D+04
    1.878381591797D+04 1.144847869873D-01 1.862645149231D-09 0.000000000000D+00
   -1.705586279297D+04-3.824453353882D-01-0.000000000000D+00 4.000000000000D+00
    2.423902832031D+03-3.582353591919D+00-0.000000000000D+00 0.000000000000D+00
11 22  6 22 20 45  0.0 3.542099148035D-05-9.094947017729D-13 7.380000000000D+04
    4.356305175781D+03-2.807391166687D+00-0.000000000000D+00 0.000000000000D+00
    1.244307275391D+04-1.026201248169D+00-9.313225746155D-10 0.000000000000D+00
    2.185333398438D+04 1.142985343933D+00-2.793967723846D-09 0.000000000000D+00
 2 22  6 22 20 45  0.0 5.220063030720D-04 9.094947017729D-13 7.380000000000D+04
    1.115658447266D+04 5.420532226563D-01 0.000000000000D+00 0.000000000000D+00
    1.237792968750D+03 3.083276748657D+00-9.313225746155D-10-4.000000000000D+00
    2.294665527344D+04-4.362220764160D-01-2.793967723846D-09 0.000000000000D+00
13 22  6 22 20 45  0.0-2.386607229710D-05-0.000000000000D+00 7.503000000000D+04
    2.401910302734D+04 9.891996383667D-01 2.793967723846D-09 0.000000000000D+00
    4.566042968750D+03 1.875457763672D-01-0.000000000000D+00-2.000000000000D+00
   -7.290489257813D+03 3.380906105042D+00-0.000000000000D+00 0.000000000000D+00
 3 22  6 22 21 15  0.0 5.891826003790D-05 9.094947017729D-13 7.560000000000D+04
    6.909225585938D+03 8.232936859131D-01 0.000000000000D+00 0.000000000000D+00
   -1.194949658203D+04 2.814326286316D+00-0.000000000000D+00 5.000000000000D+00
    2.151027392578D+04 1.296909332275D+00-1.862645149231D-09 0.000000000000D+00
12 22  6 22 21 15  0.0 1.897290349007D-05 0.000000000000D+00 7.560000000000D+04
    1.772285107422D+04-1.939745903015D+00 0.000000000000D+00 0.000000000000D+00
    1.098505957031D+04-5.371589660645D-01-9.313225746155D-10-1.000000000000D+00
    1.471296582031D+04 2.744109153748D+00-1.862645149231D-09 0.000000000000D+00
 1 22  6 22 21 15  0.0 1.032650470734D-05 0.000000000000D+00 7.560000000000D+04
    1.095012402344D+04 4.326734542847D-01-0.000000000000D+00 0.000000000000D+00
    2.206086572266D+04 8.169469833374D-01-9.313225746155D-10 1.000000000000D+00
    6.677425292969D+03-3.409161567688D+00-9.313225746155D-10 0.000000000000D+00
18 22  6 22 21 15  0.0 1.211576163769D-04 9.094947017729D-13 7.560000000000D+04
    1.065045166016D+04 1.019967079163D+00 9.313225746155D-10 0.000000000000D+00
   -1.955235791016D+04-1.389497756958D+00-0.000000000000D+00-3.000000000000D+00
    1.250048828125D+04-3.039332389832D+00-9.313225746155D-10 0.000000000000D+00
13 22  6 22 21 15  0.0-2.386700361967D-05-0.000000000000D+00 7.560000000000D+04
    2.507379541016D+04 1.631126403809D-01 2.793967723846D-09 0.000000000000D+00
    4.592637695313D+03-1.218986511230D-01-9.313225746155D-10-2.000000000000D+00
   -1.001713867188D+03 3.561271667480D+00-9.313225746155D-10 0.000000000000D+00
11 22  6 22 21 15  0.0 3.541912883520D-05-9.094947017729D-13 7.560000000000D+04
   -9.903984375000D+02-3.086317062378D+00-1.862645149231D-09 0.000000000000D+00
    1.092768798828D+04-6.368341445923D-01-0.000000000000D+00 0.000000000000D+00
    2.304083251953D+04 1.678743362427D-01-1.862645149231D-09 0.000000000000D+00
 2 22  6 22 21 15  0.0 5.220156162977D-04 9.094947017729D-13 7.560000000000D+04
    1.249270996094D+04 9.205989837646D-01 0.000000000000D+00 0.000000000000D+00
    6.535335937500D+03 2.756592750549D+00-9.313225746155D-10-4.000000000000D+00
    2.128808642578D+04-1.394936561584D+00-2.793967723846D-09 0.000000000000D+00
19 22  6 22 21 15  0.0-1.936852931976D-04-9.094947017729D-13 7.560000000000D+04
   -1.450580078125D+03 2.084743499756D+00-0.000000000000D+00 0.000000000000D+00
   -1.252043261719D+04-2.218340873718D+00-0.000000000000D+00 3.000000000000D+00
    2.216748681641D+04-1.116452217102D+00-1.862645149231D-09 0.000000000000D+00
 3 22  6 22 21 45  0.0 5.892105400562D-05 9.094947017729D-13 7.740000000000D+04
    8.839713378906D+03 1.312292098999D+00 0.000000000000D+00 0.000000000000D+00
   -6.809898925781D+03 2.846236228943D+00-9.313225746155D-10 5.000000000000D+00
    2.298802685547D+04 3.343524932861D-01-1.862645149231D-09 0.000000000000D+00
12 22  6 22 21 45  0.0 1.897383481264D-05 0.000000000000D+00 7.740000000000D+04
    1.362233642578D+04-2.582603454590D+00-0.000000000000D+00 0.000000000000D+00
    1.020789843750D+04-2.937145233154D-01-9.313225746155D-10-1.000000000000D+00
    1.902077246094D+04 2.011419296265D+00-2.793967723846D-09 0.000000000000D+00
 1 22  6 22 21 45  0.0 1.032743602991D-05 0.000000000000D+00 7.740000000000D+04
    1.151672021484D+04 1.568059921265D-01-0.000000000000D+00 0.000000000000D+00
    2.276781787109D+04-2.332305908203D-02-9.313225746155D-10 1.000000000000D+00
    3.622500000000D+02-3.562183380127D+00-9.313225746155D-10 0.000000000000D+00
18 22  6 22 21 45  0.0 1.211604103446D-04 9.094947017729D-13 7.740000000000D+04
    1.185727734375D+04 3.368835449219D-01 1.862645149231D-09 0.000000000000D+00
   -2.162576855469D+04-8.727169036865D-01-0.000000000000D+00-3.000000000000D+00
    6.618355468750D+03-3.454053878784D+00-9.313225746155D-10 0.000000000000D+00
13 22  6 22 21 45  0.0-2.386793494225D-05-0.000000000000D+00 7.740000000000D+04
    2.456942333984D+04-7.240781784058D-01 1.862645149231D-09 0.000000000000D+00
    4.268198242188D+03-1.978349685669D-01-9.313225746155D-10-2.000000000000D+00
    5.364473144531D+03 3.466330528259D+00-1.862645149231D-09 0.000000000000D+00
11 22  6 22 21 45  0.0 3.541726619005D-05-9.094947017729D-13 7.740000000000D+04
   -6.574053710938D+03-3.066134452820D+00-2.793967723846D-09 0.000000000000D+00
    1.019423730469D+04-1.749086380005D-01 0.000000000000D+00 0.000000000000D+00
    2.244972412109D+04-8.204603195190D-01-1.862645149231D-09 0.000000000000D+00
 2 22  6 22 21 45  0.0 5.220184102654D-04 9.094947017729D-13 7.740000000000D+04
    1.436523486328D+04 1.124291419983D+00-0.000000000000D+00 0.000000000000D+00
    1.101455078125D+04 2.186162948608D+00-9.313225746155D-10-4.000000000000D+00
    1.798871533203D+04-2.247519493103D+00-1.862645149231D-09 0.000000000000D+00
19 22  6 22 21 45  0.0-1.936880871654D-04-9.094947017729D-13 7.740000000000D+04
    1.782136718750D+03 1.489770889282D+00 0.000000000000D+00 0.000000000000D+00
   -1.654101464844D+04-2.200231552124D+00-0.000000000000D+00 3.000000000000D+00
    1.932624609375D+04-2.019972801208D+00-1.862645149231D-09 0.000000000000D+00
